[{"OBJECT_NAME":"QIANFAN-18","OBJECT_ID":"2024-140T","EPOCH":"2026-03-03T10:37:44.445792","MEAN_MOTION":13.51003231,"ECCENTRICITY":0.0013311,"INCLINATION":88.9725,"RA_OF_ASC_NODE":290.626,"ARG_OF_PERICENTER":321.7619,"MEAN_ANOMALY":38.2587,"EPHEMERIS_TYPE":0,"CLASSIFICATION_TYPE":"U","NORAD_CAT_ID":60396,"ELEMENT_SET_NO":999,"REV_AT_EPOCH":7842,"BSTAR":0.00016958,"MEAN_MOTION_DOT":1.21e-6,"MEAN_MOTION_DDOT":0},{"OBJECT_NAME":"QIANFAN-19","OBJECT_ID":"2024-185A","EPOCH":"2026-03-03T10:49:18.648192","MEAN_MOTION":14.1438437,"ECCENTRICITY":0.000877,"INCLINATION":88.9757,"RA_OF_ASC_NODE":68.6744,"ARG_OF_PERICENTER":56.3647,"MEAN_ANOMALY":303.8376,"EPHEMERIS_TYPE":0,"CLASSIFICATION_TYPE":"U","NORAD_CAT_ID":61552,"ELEMENT_SET_NO":999,"REV_AT_EPOCH":8107,"BSTAR":0.00032107,"MEAN_MOTION_DOT":6.28e-6,"MEAN_MOTION_DDOT":0},{"OBJECT_NAME":"QIANFAN-20","OBJECT_ID":"2024-185B","EPOCH":"2026-03-03T10:34:15.852000","MEAN_MOTION":14.08930688,"ECCENTRICITY":0.0007923,"INCLINATION":88.9754,"RA_OF_ASC_NODE":69.0809,"ARG_OF_PERICENTER":87.6934,"MEAN_ANOMALY":272.5156,"EPHEMERIS_TYPE":0,"CLASSIFICATION_TYPE":"U","NORAD_CAT_ID":61553,"ELEMENT_SET_NO":999,"REV_AT_EPOCH":8085,"BSTAR":0.00034575,"MEAN_MOTION_DOT":6.12e-6,"MEAN_MOTION_DDOT":0},{"OBJECT_NAME":"QIANFAN-21","OBJECT_ID":"2024-185C","EPOCH":"2026-03-03T11:53:27.298176","MEAN_MOTION":14.22724626,"ECCENTRICITY":0.0012956,"INCLINATION":88.9675,"RA_OF_ASC_NODE":67.5019,"ARG_OF_PERICENTER":98.5691,"MEAN_ANOMALY":261.6969,"EPHEMERIS_TYPE":0,"CLASSIFICATION_TYPE":"U","NORAD_CAT_ID":61554,"ELEMENT_SET_NO":999,"REV_AT_EPOCH":8145,"BSTAR":0.00034478,"MEAN_MOTION_DOT":7.87e-6,"MEAN_MOTION_DDOT":0},{"OBJECT_NAME":"QIANFAN-22","OBJECT_ID":"2024-185D","EPOCH":"2026-03-03T11:37:48.111168","MEAN_MOTION":13.86337415,"ECCENTRICITY":0.0008516,"INCLINATION":88.9739,"RA_OF_ASC_NODE":70.3834,"ARG_OF_PERICENTER":105.0211,"MEAN_ANOMALY":255.1904,"EPHEMERIS_TYPE":0,"CLASSIFICATION_TYPE":"U","NORAD_CAT_ID":61555,"ELEMENT_SET_NO":999,"REV_AT_EPOCH":8012,"BSTAR":0.00023979,"MEAN_MOTION_DOT":2.91e-6,"MEAN_MOTION_DDOT":0},{"OBJECT_NAME":"QIANFAN-23","OBJECT_ID":"2024-185E","EPOCH":"2026-03-03T10:53:29.877792","MEAN_MOTION":14.16389192,"ECCENTRICITY":0.0009665,"INCLINATION":88.9749,"RA_OF_ASC_NODE":68.4457,"ARG_OF_PERICENTER":64.3358,"MEAN_ANOMALY":295.8827,"EPHEMERIS_TYPE":0,"CLASSIFICATION_TYPE":"U","NORAD_CAT_ID":61556,"ELEMENT_SET_NO":999,"REV_AT_EPOCH":8117,"BSTAR":0.00033056,"MEAN_MOTION_DOT":6.71e-6,"MEAN_MOTION_DDOT":0},{"OBJECT_NAME":"QIANFAN-24","OBJECT_ID":"2024-185F","EPOCH":"2026-03-03T12:00:29.935872","MEAN_MOTION":14.23927869,"ECCENTRICITY":0.0010811,"INCLINATION":88.9733,"RA_OF_ASC_NODE":67.7132,"ARG_OF_PERICENTER":44.7466,"MEAN_ANOMALY":315.4597,"EPHEMERIS_TYPE":0,"CLASSIFICATION_TYPE":"U","NORAD_CAT_ID":61557,"ELEMENT_SET_NO":999,"REV_AT_EPOCH":8151,"BSTAR":0.00040522,"MEAN_MOTION_DOT":9.43e-6,"MEAN_MOTION_DDOT":0},{"OBJECT_NAME":"QIANFAN-25","OBJECT_ID":"2024-185G","EPOCH":"2026-03-03T12:02:32.491680","MEAN_MOTION":14.05992681,"ECCENTRICITY":0.0011928,"INCLINATION":88.9746,"RA_OF_ASC_NODE":69.0312,"ARG_OF_PERICENTER":71.0133,"MEAN_ANOMALY":289.234,"EPHEMERIS_TYPE":0,"CLASSIFICATION_TYPE":"U","NORAD_CAT_ID":61558,"ELEMENT_SET_NO":999,"REV_AT_EPOCH":8085,"BSTAR":0.00031572,"MEAN_MOTION_DOT":5.31e-6,"MEAN_MOTION_DDOT":0},{"OBJECT_NAME":"QIANFAN-26","OBJECT_ID":"2024-185H","EPOCH":"2026-03-03T12:05:48.657696","MEAN_MOTION":13.77860137,"ECCENTRICITY":0.0007577,"INCLINATION":88.9744,"RA_OF_ASC_NODE":71.0179,"ARG_OF_PERICENTER":117.6627,"MEAN_ANOMALY":242.531,"EPHEMERIS_TYPE":0,"CLASSIFICATION_TYPE":"U","NORAD_CAT_ID":61559,"ELEMENT_SET_NO":999,"REV_AT_EPOCH":7979,"BSTAR":0.00025643,"MEAN_MOTION_DOT":2.7e-6,"MEAN_MOTION_DDOT":0},{"OBJECT_NAME":"QIANFAN-27","OBJECT_ID":"2024-185J","EPOCH":"2026-03-03T12:10:04.266912","MEAN_MOTION":14.27440522,"ECCENTRICITY":0.00089,"INCLINATION":88.9746,"RA_OF_ASC_NODE":67.4566,"ARG_OF_PERICENTER":38.2844,"MEAN_ANOMALY":321.8981,"EPHEMERIS_TYPE":0,"CLASSIFICATION_TYPE":"U","NORAD_CAT_ID":61560,"ELEMENT_SET_NO":999,"REV_AT_EPOCH":8168,"BSTAR":0.00028114,"MEAN_MOTION_DOT":7.04e-6,"MEAN_MOTION_DDOT":0},{"OBJECT_NAME":"QIANFAN-28","OBJECT_ID":"2024-185K","EPOCH":"2026-03-03T10:44:31.863264","MEAN_MOTION":14.28207257,"ECCENTRICITY":0.0008502,"INCLINATION":88.9762,"RA_OF_ASC_NODE":67.4707,"ARG_OF_PERICENTER":39.3158,"MEAN_ANOMALY":320.8653,"EPHEMERIS_TYPE":0,"CLASSIFICATION_TYPE":"U","NORAD_CAT_ID":61561,"ELEMENT_SET_NO":999,"REV_AT_EPOCH":8169,"BSTAR":0.00043044,"MEAN_MOTION_DOT":1.086e-5,"MEAN_MOTION_DDOT":0},{"OBJECT_NAME":"QIANFAN-29","OBJECT_ID":"2024-185L","EPOCH":"2026-03-03T11:11:34.905408","MEAN_MOTION":13.5104264,"ECCENTRICITY":0.0010167,"INCLINATION":88.9717,"RA_OF_ASC_NODE":72.9532,"ARG_OF_PERICENTER":165.6341,"MEAN_ANOMALY":194.5101,"EPHEMERIS_TYPE":0,"CLASSIFICATION_TYPE":"U","NORAD_CAT_ID":61562,"ELEMENT_SET_NO":999,"REV_AT_EPOCH":7869,"BSTAR":0.0003135,"MEAN_MOTION_DOT":2.15e-6,"MEAN_MOTION_DDOT":0},{"OBJECT_NAME":"QIANFAN-30","OBJECT_ID":"2024-185M","EPOCH":"2026-03-03T12:03:27.358272","MEAN_MOTION":13.50017816,"ECCENTRICITY":0.0008496,"INCLINATION":88.9736,"RA_OF_ASC_NODE":72.5059,"ARG_OF_PERICENTER":149.338,"MEAN_ANOMALY":210.8268,"EPHEMERIS_TYPE":0,"CLASSIFICATION_TYPE":"U","NORAD_CAT_ID":61563,"ELEMENT_SET_NO":999,"REV_AT_EPOCH":7896,"BSTAR":0.00031245,"MEAN_MOTION_DOT":2.11e-6,"MEAN_MOTION_DDOT":0},{"OBJECT_NAME":"QIANFAN-31","OBJECT_ID":"2024-185N","EPOCH":"2026-03-03T10:31:38.179776","MEAN_MOTION":13.58002056,"ECCENTRICITY":0.0008182,"INCLINATION":88.9721,"RA_OF_ASC_NODE":72.1859,"ARG_OF_PERICENTER":140.8953,"MEAN_ANOMALY":219.2795,"EPHEMERIS_TYPE":0,"CLASSIFICATION_TYPE":"U","NORAD_CAT_ID":61564,"ELEMENT_SET_NO":999,"REV_AT_EPOCH":7911,"BSTAR":0.00029083,"MEAN_MOTION_DOT":2.22e-6,"MEAN_MOTION_DDOT":0},{"OBJECT_NAME":"QIANFAN-32","OBJECT_ID":"2024-185P","EPOCH":"2026-03-03T12:00:24.287904","MEAN_MOTION":13.50763261,"ECCENTRICITY":0.000951,"INCLINATION":88.9781,"RA_OF_ASC_NODE":72.665,"ARG_OF_PERICENTER":178.6708,"MEAN_ANOMALY":181.447,"EPHEMERIS_TYPE":0,"CLASSIFICATION_TYPE":"U","NORAD_CAT_ID":61565,"ELEMENT_SET_NO":999,"REV_AT_EPOCH":7894,"BSTAR":0.00025674,"MEAN_MOTION_DOT":1.77e-6,"MEAN_MOTION_DDOT":0},{"OBJECT_NAME":"QIANFAN-33","OBJECT_ID":"2024-185Q","EPOCH":"2026-03-03T12:11:30.928704","MEAN_MOTION":13.96620794,"ECCENTRICITY":0.0009328,"INCLINATION":88.9735,"RA_OF_ASC_NODE":69.7861,"ARG_OF_PERICENTER":78.712,"MEAN_ANOMALY":281.5105,"EPHEMERIS_TYPE":0,"CLASSIFICATION_TYPE":"U","NORAD_CAT_ID":61566,"ELEMENT_SET_NO":999,"REV_AT_EPOCH":8043,"BSTAR":0.00035079,"MEAN_MOTION_DOT":4.99e-6,"MEAN_MOTION_DDOT":0},{"OBJECT_NAME":"QIANFAN-34","OBJECT_ID":"2024-185R","EPOCH":"2026-03-03T11:58:17.608224","MEAN_MOTION":14.02380723,"ECCENTRICITY":0.000826,"INCLINATION":88.9711,"RA_OF_ASC_NODE":69.2434,"ARG_OF_PERICENTER":82.4142,"MEAN_ANOMALY":277.7976,"EPHEMERIS_TYPE":0,"CLASSIFICATION_TYPE":"U","NORAD_CAT_ID":61567,"ELEMENT_SET_NO":999,"REV_AT_EPOCH":8067,"BSTAR":0.000326,"MEAN_MOTION_DOT":5.14e-6,"MEAN_MOTION_DDOT":0}]
