QIANFAN-18              
1 60396U 24140T   26062.44287553  .00000121  00000+0  16958-3 0  9994
2 60396  88.9725 290.6260 0013311 321.7619  38.2587 13.51003231 78421
QIANFAN-19              
1 61552U 24185A   26062.45091028  .00000628  00000+0  32107-3 0  9995
2 61552  88.9757  68.6744 0008770  56.3647 303.8376 14.14384370 81074
QIANFAN-20              
1 61553U 24185B   26062.44046125  .00000612  00000+0  34575-3 0  9997
2 61553  88.9754  69.0809 0007923  87.6934 272.5156 14.08930688 80859
QIANFAN-21              
1 61554U 24185C   26062.49545484  .00000787  00000+0  34478-3 0  9990
2 61554  88.9675  67.5019 0012956  98.5691 261.6969 14.22724626 81458
QIANFAN-22              
1 61555U 24185D   26062.48458462  .00000291  00000+0  23979-3 0  9993
2 61555  88.9739  70.3834 0008516 105.0211 255.1904 13.86337415 80121
QIANFAN-23              
1 61556U 24185E   26062.45381803  .00000671  00000+0  33056-3 0  9994
2 61556  88.9749  68.4457 0009665  64.3358 295.8827 14.16389192 81171
QIANFAN-24              
1 61557U 24185F   26062.50034648  .00000943  00000+0  40522-3 0  9991
2 61557  88.9733  67.7132 0010811  44.7466 315.4597 14.23927869 81512
QIANFAN-25              
1 61558U 24185G   26062.50176495  .00000531  00000+0  31572-3 0  9997
2 61558  88.9746  69.0312 0011928  71.0133 289.2340 14.05992681 80850
QIANFAN-26              
1 61559U 24185H   26062.50403539  .00000270  00000+0  25643-3 0  9992
2 61559  88.9744  71.0179 0007577 117.6627 242.5310 13.77860137 79791
QIANFAN-27              
1 61560U 24185J   26062.50699383  .00000704  00000+0  28114-3 0  9996
2 61560  88.9746  67.4566 0008900  38.2844 321.8981 14.27440522 81688
QIANFAN-28              
1 61561U 24185K   26062.44759101  .00001086  00000+0  43044-3 0  9998
2 61561  88.9762  67.4707 0008502  39.3158 320.8653 14.28207257 81695
QIANFAN-29              
1 61562U 24185L   26062.46637622  .00000215  00000+0  31350-3 0  9994
2 61562  88.9717  72.9532 0010167 165.6341 194.5101 13.51042640 78698
QIANFAN-30              
1 61563U 24185M   26062.50239998  .00000211  00000+0  31245-3 0  9993
2 61563  88.9736  72.5059 0008496 149.3380 210.8268 13.50017816 78966
QIANFAN-31              
1 61564U 24185N   26062.43863634  .00000222  00000+0  29083-3 0  9995
2 61564  88.9721  72.1859 0008182 140.8953 219.2795 13.58002056 79113
QIANFAN-32              
1 61565U 24185P   26062.50028111  .00000177  00000+0  25674-3 0  9998
2 61565  88.9781  72.6650 0009510 178.6708 181.4470 13.50763261 78941
QIANFAN-33              
1 61566U 24185Q   26062.50799686  .00000499  00000+0  35079-3 0  9998
2 61566  88.9735  69.7861 0009328  78.7120 281.5105 13.96620794 80434
QIANFAN-34              
1 61567U 24185R   26062.49881491  .00000514  00000+0  32600-3 0  9998
2 61567  88.9711  69.2434 0008260  82.4142 277.7976 14.02380723 80672
